COSMOS 2251 DEB         
1 33905U 93036DJ  24302.95289677  .00007787  00000+0  28029-2 0  9996
2 33905  73.8899 353.7620 0062247 323.6229  98.6657 14.32786496818176
COSMOS 2251 DEB         
1 33906U 93036DK  24302.97463318  .00028247  00000+0  75308-2 0  9991
2 33906  74.0363  14.9923 0037594 153.1075  19.2149 14.47894209820569
COSMOS 2251 DEB         
1 33907U 93036DL  24302.74432358  .00031333  00000+0  12617-1 0  9990
2 33907  74.0722  54.7564 0127136 214.8788 302.2861 14.23559224807290
COSMOS 2251 DEB         
1 33908U 93036DM  24302.76322834  .00018342  00000+0  93569-2 0  9991
2 33908  73.8416 210.7795 0236423 308.6751  49.3438 14.02260237797141
COSMOS 2251 DEB         
1 33911U 93036DQ  24302.63802663  .00040180  00000+0  80567-2 0  9993
2 33911  74.0962 232.7683 0019310 284.9233 134.2918 14.61392358826234
COSMOS 2251 DEB         
1 33912U 93036DR  24302.58705672  .00015311  00000+0  41305-2 0  9995
2 33912  74.0362 240.2379 0009866  54.1819 119.3249 14.47853880824872
COSMOS 2251 DEB         
1 33913U 93036DS  24302.22747935  .00009367  00000+0  26106-2 0  9991
2 33913  74.0357 231.3217 0048098  75.2523  40.1953 14.45731654825185
COSMOS 2251 DEB         
1 33914U 93036DT  24302.49417406  .00001873  00000+0  15149-2 0  9997
2 33914  74.0899 330.8871 0305709 169.0747 304.7691 13.71266776784563
COSMOS 2251 DEB         
1 33915U 93036DU  24302.79771441  .00007850  00000+0  26801-2 0  9991
2 33915  74.0451  64.3831 0110142 257.3055 256.0219 14.33134015818800
COSMOS 2251 DEB         
1 33916U 93036DV  24302.91581654  .00002830  00000+0  23129-2 0  9994
2 33916  74.0546 353.6069 0327627 256.3438 280.4436 13.67980444782853
COSMOS 2251 DEB         
1 33917U 93036DW  24302.67091702  .00009500  00000+0  75729-2 0  9992
2 33917  74.1082  74.0321 0338687 271.3885  84.8462 13.67579313781231
COSMOS 2251 DEB         
1 33919U 93036DY  24303.13043043  .00202772  00000+0  12688-1 0  9991
2 33919  74.0327   1.4602 0004464 288.1518  71.9187 15.08337484833295
COSMOS 2251 DEB         
1 33920U 93036DZ  24302.54457008  .00022592  00000+0  58375-2 0  9991
2 33920  74.0660 352.9723 0038416 105.6416 254.8989 14.49415839821518
COSMOS 2251 DEB         
1 33922U 93036EB  24303.00498785  .00008315  00000+0  22722-2 0  9996
2 33922  74.0503 194.8348 0022160  46.6422 325.7225 14.47244032826870
COSMOS 2251 DEB         
1 33924U 93036ED  24302.71726785  .00003693  00000+0  35346-2 0  9999
2 33924  73.9158 208.8352 0406716 319.1479  37.9781 13.49380066772069
COSMOS 2251 DEB         
1 33928U 93036EH  24303.16270444  .00005433  00000+0  14989-2 0  9993
2 33928  73.9241 102.9572 0061890 128.2761 232.3988 14.45907288827268
COSMOS 2251 DEB         
1 33930U 93036EK  24302.89636201  .00133355  00000+0  14472-1 0  9993
2 33930  74.0121 166.7806 0011167 204.7499 166.8913 14.87328570827310
COSMOS 2251 DEB         
1 33931U 93036EL  24302.68043674  .00112394  00000+0  88690-2 0  9991
2 33931  74.0130  31.0427 0125327 223.2052 135.9250 14.94129112831178
COSMOS 2251 DEB         
1 33932U 93036EM  24303.12510886  .00005713  00000+0  19226-2 0  9991
2 33932  74.0371 350.4401 0036249 171.8830 188.2918 14.36929778821311
COSMOS 2251 DEB         
1 33933U 93036EN  24302.83610819  .00005977  00000+0  21613-2 0  9991
2 33933  74.0888  86.5800 0073551 201.5358 158.2696 14.32187094819138
COSMOS 2251 DEB         
1 33934U 93036EP  24302.90061405  .00014102  00000+0  33329-2 0  9998
2 33934  74.0398 158.7148 0016157  21.2627 338.9204 14.54086777827701
COSMOS 2251 DEB         
1 33935U 93036EQ  24302.56317768  .00453008  00000+0  15418-1 0  9997
2 33935  73.9831 233.5505 0024561 156.5241 203.7088 15.28149625836481
COSMOS 2251 DEB         
1 33936U 93036ER  24302.69098845  .00014562  00000+0  33048-2 0  9992
2 33936  74.0184  98.7448 0030129 351.5679   8.4973 14.55773146829127
COSMOS 2251 DEB         
1 33938U 93036ET  24302.64594315  .00009829  00000+0  28556-2 0  9990
2 33938  74.0463 251.5728 0014855  75.0831  98.8011 14.44334722824734
COSMOS 2251 DEB         
1 33939U 93036EU  24302.90604517  .00058312  00000+0  98292-2 0  9991
2 33939  74.0195 174.8362 0005821 327.3223  32.7586 14.69144123826714
COSMOS 2251 DEB         
1 33940U 93036EV  24302.89022161  .00018753  00000+0  45286-2 0  9990
2 33940  74.0441 200.7805 0011655  16.1420 103.1604 14.53058659826271
COSMOS 2251 DEB         
1 33942U 93036EX  24302.80410205  .00002830  00000+0  96035-3 0  9991
2 33942  74.0363 309.3226 0019312 139.5988  34.1251 14.37041159822430
COSMOS 2251 DEB         
1 33944U 93036EZ  24302.87998845  .00004005  00000+0  12827-2 0  9993
2 33944  74.0424 342.3254 0115246 183.8302 349.8119 14.36112515821413
COSMOS 2251 DEB         
1 33945U 93036FA  24302.82302396  .00001366  00000+0  49661-3 0  9993
2 33945  74.0301 337.1116 0022305 168.6364 191.5296 14.34072975821386
COSMOS 2251 DEB         
1 33948U 93036FD  24302.49366301  .00001853  00000+0  65912-3 0  9993
2 33948  74.0361 337.4619 0022722 159.5079 200.6990 14.34892103821376
COSMOS 2251 DEB         
1 33971U 93036FE  24303.12510802  .00004019  00000+0  13216-2 0  9993
2 33971  74.0242 290.1345 0017359 136.8558 341.3644 14.38472158822481
COSMOS 2251 DEB         
1 33972U 93036FF  24303.19736799  .00021563  00000+0  75269-2 0  9995
2 33972  73.9962 221.8873 0134459 125.3296  30.6007 14.30232303812229
COSMOS 2251 DEB         
1 33973U 93036FG  24302.62430997  .00001745  00000+0  50480-3 0  9993
2 33973  74.0068 148.2625 0045724  64.9520 351.1126 14.44675474826762
COSMOS 2251 DEB         
1 33975U 93036FJ  24303.15668672  .00003272  00000+0  19276-2 0  9991
2 33975  73.8021  83.8476 0193822 286.1764  71.8114 13.99410001801149
COSMOS 2251 DEB         
1 33980U 93036FP  24302.96734531  .00013497  00000+0  31579-2 0  9993
2 33980  74.0213 118.0667 0030616   1.0374 161.0039 14.54359112828274
COSMOS 2251 DEB         
1 33982U 93036FR  24302.78727458  .00014079  00000+0  29779-2 0  9991
2 33982  74.0732  59.4169 0079807 213.3201 299.4527 14.57312834831803
COSMOS 2251 DEB         
1 33983U 93036FS  24302.73123565  .00008785  00000+0  23600-2 0  9990
2 33983  74.0531 195.7625 0020641  39.3552 352.8296 14.48070501826880
COSMOS 2251 DEB         
1 33984U 93036FT  24302.74865675  .00019930  00000+0  40959-2 0  9997
2 33984  74.0126  55.4743 0027555 349.6517 160.8001 14.60321858830674
COSMOS 2251 DEB         
1 33986U 93036FV  24303.09889095  .00009569  00000+0  29994-2 0  9993
2 33986  74.0390 341.9700 0041528 160.7972 221.3855 14.40198572821750
COSMOS 2251 DEB         
1 33989U 93036FY  24303.12532135  .00289427  00000+0  12453-1 0  9994
2 33989  74.0000 196.7849 0024286 129.5674 230.7675 15.21009235838046
COSMOS 2251 DEB         
1 33990U 93036FZ  24303.20850515  .00004232  00000+0  40260-2 0  9997
2 33990  73.9302 223.0181 0410559 319.3590 193.3876 13.49128074772249
COSMOS 2251 DEB         
1 33992U 93036GB  24302.72887699  .00018888  00000+0  37629-2 0  9995
2 33992  74.0276  45.5881 0060460 267.8486 243.1538 14.60823055831251
COSMOS 2251 DEB         
1 33994U 93036GD  24302.27726334  .00001511  00000+0  47949-3 0  9997
2 33994  74.0438 229.7359 0021986 109.1387   7.5045 14.40735374825079
COSMOS 2251 DEB         
1 33995U 93036GE  24302.73723222  .00008530  00000+0  31373-2 0  9993
2 33995  74.0628 147.8365 0064339 263.9679  95.4137 14.31608758816444
COSMOS 2251 DEB         
1 33999U 93036GJ  24302.79502000  .00035194  00000+0  56616-2 0  9995
2 33999  73.9273 320.7082 0061111 309.5543  50.0236 14.70126332831969
COSMOS 2251 DEB         
1 34001U 93036GL  24302.49370278  .00001875  00000+0  64856-3 0  9992
2 34001  74.0378 315.5514 0019138 143.8024  17.4992 14.36324827822540
COSMOS 2251 DEB         
1 34003U 93036GN  24302.28750735  .00006799  00000+0  47431-2 0  9990
2 34003  74.0774 254.6261 0281368 103.0861 260.1826 13.81411385787512
COSMOS 2251 DEB         
1 34004U 93036GP  24302.59464796  .00014541  00000+0  42679-2 0  9997
2 34004  74.0393 359.2391 0031404 115.2426 245.1992 14.43533129820999
COSMOS 2251 DEB         
1 34005U 93036GQ  24302.88848550  .00001850  00000+0  59746-3 0  9997
2 34005  74.0447 250.5969 0019255 114.7783 270.6511 14.39746059824799
COSMOS 2251 DEB         
1 34006U 93036GR  24302.09125250  .00071731  00000+0  12555-1 0  9996
2 34006  74.0633 232.4632 0017061 304.7052  65.3521 14.67303319825954
COSMOS 2251 DEB         
1 34007U 93036GS  24302.58549529  .00017483  00000+0  35965-2 0  9995
2 34007  74.0231  53.6101 0051936 290.5548  69.0049 14.59689462830830
COSMOS 2251 DEB         
1 34008U 93036GT  24302.92603432  .00001145  00000+0  42916-3 0  9991
2 34008  74.0360 359.2347 0022378  96.0855  76.8759 14.32694285820944
COSMOS 2251 DEB         
1 34009U 93036GU  24302.93072089  .00001523  00000+0  56680-3 0  9994
2 34009  74.0392   5.5638 0027438 179.6300 354.0602 14.32690426820759
COSMOS 2251 DEB         
1 34010U 93036GV  24302.67999286  .00068740  00000+0  91431-2 0  9990
2 34010  74.0182  33.7133 0018030 282.6497  77.2662 14.79211246831595
COSMOS 2251 DEB         
1 34011U 93036GW  24302.60441229  .00010590  00000+0  34533-2 0  9993
2 34011  74.0203   9.3234 0039425 195.9056 164.0863 14.38283587820306
COSMOS 2251 DEB         
1 34014U 93036GZ  24302.60042479  .00021073  00000+0  37974-2 0  9990
2 34014  74.0225 356.6837 0044699 244.9547 266.1137 14.65831724832773
COSMOS 2251 DEB         
1 34015U 93036HA  24302.51486920  .00014381  00000+0  34101-2 0  9997
2 34015  74.0277 219.5410 0022732  55.9723 116.8693 14.53849266825592
COSMOS 2251 DEB         
1 34018U 93036HD  24302.64638343  .00004404  00000+0  32468-2 0  9991
2 34018  73.8791  66.7145 0266453 178.1350 196.3016 13.80264602789971
